GREENCUBE (IO-117)
1 53106U 22080B   25051.21822557 -.00000003  00000-0  00000 0 0  9995
2 53106  70.1434 106.3440 0008542  48.0089 312.1297  6.42557744 61200
ROBUSTA 1F (MTCUBE-2)
1 53109U 22080E   26146.86210959 -.00000003  00000-0  00000+0 0  9992
2 53109  70.1433 305.6635 0008877 294.6917  65.2819  6.42583277 90693
BLUEWALKER-3
1 53807U 22111AL  26147.19201602  .00007017  00000-0  19526-3 0  9992
2 53807  53.2275 132.5160 0007374 104.2797 255.9028 15.37971604206976
ELEKTRO-L4
1 55506U 23016A   26146.86051330 -.00000054  00000-0  00000+0 0  9997
2 55506   0.0833 204.7801 0000526 336.3819 178.8385  1.00272001 12113
SHARJAHSAT-1
1 55104U 23001CZ  26147.17756322  .00021179  00000-0  40368-3 0  9998
2 55104  97.3186 215.6644 0006423 164.3211 195.8240 15.48180128189243
METEOR M2-3
1 57166U 23091A   26147.16029323 -.00000005  00000-0  16510-4 0  9999
2 57166  98.6105 202.5673 0003149 217.5326 142.5633 14.24044625151524
RESHUCUBE-2 (RS37S)
1 57168U 23091C   26147.18507123  .00011806  00000-0  45892-3 0  9996
2 57168  97.5040 209.4165 0011779 173.0385 187.1018 15.26140482161055
RASSVET 1-1
1 57169U 23091D   26147.17556512  .00011147  00000-0  46515-3 0  9993
2 57169  97.5127 208.6752 0010857 166.2993 193.8541 15.23784225160960
RASSVET 1-2
1 57170U 23091E   26147.17573569  .00011290  00000-0  47119-3 0  9996
2 57170  97.5132 208.7514 0010033 157.5917 202.5760 15.23785320160968
RASSVET 1-3
1 57171U 23091F   26147.17534286  .00011212  00000-0  46781-3 0  9998
2 57171  97.5128 208.7026 0011299 176.7451 183.3862 15.23782009160963
UMKA-1 (RS40S)
1 57172U 23091G   26147.16895374  .00008209  00000-0  37751-3 0  9995
2 57172  97.5067 205.9497 0012785 185.7100 174.3992 15.20536593160819
SATURN (RS43S)
1 57174U 23091J   26147.16898964  .00004859  00000-0  27262-3 0  9998
2 57174  97.5070 200.5660 0012421 214.4742 145.5685 15.13759476160455
CUBEBEL-2 (EU11S)
1 57175U 23091K   26147.17462502  .00015851  00000-0  57144-3 0  9991
2 57175  97.5067 210.2114 0010251 180.4525 179.6707 15.28577987161099
SITRO-AIS-5 (ANOKHIN)
1 57176U 23091L   26147.19592260  .00016369  00000-0  58398-3 0  9996
2 57176  97.5075 210.9029 0012055 169.4960 190.6534 15.28894980161136
ZORKIY-2M
1 57177U 23091M   26147.15627671  .00007851  00000-0  36068-3 0  9994
2 57177  97.5107 206.1917 0013445 182.9291 177.1868 15.20581163160808
CUBESX-HSE-3 (RS42S)
1 57178U 23091N   26147.19269500  .00017392  00000-0  58869-3 0  9996
2 57178  97.5107 212.5228 0011679 160.1298 200.0399 15.30598555161212
PHI-DEMO
1 57181U 23091R   26147.14968084  .00003993  00000-0  22096-3 0  9993
2 57181  97.5082 201.3794 0014509 204.4587 155.5958 15.14342953160507
MONITOR-3 (RS58S)
1 57180U 23091Q   26147.17164547  .00013597  00000-0  50899-3 0  9990
2 57180  97.5099 210.4696 0012403 166.8591 193.2973 15.27349465161082
NORBY-2
1 57179U 23091P   26147.16800139  .00005597  00000-0  29165-3 0  9994
2 57179  97.5109 203.3661 0014655 191.9029 168.1859 15.16298592160604
MONITOR-4 (RS57S)
1 57182U 23091S   26147.15198439  .00011611  00000-0  43395-3 0  9995
2 57182  97.5092 210.4198 0012343 167.2204 192.9350 15.27444737161086
MONITOR-2 (RS39S)
1 57184U 23091U   26147.16417995  .00006543  00000-0  31832-3 0  9990
2 57184  97.5089 205.5849 0011399 177.7160 182.4128 15.18682202160761
SVYATOBOR-1 (RS60S)
1 57187U 23091X   26147.14738839  .00010343  00000-0  40200-3 0  9996
2 57187  97.5103 210.8532 0010267 158.4776 201.6896 15.26194592161105
VIZARD-METEO (RS38S)
1 57189U 23091Z   26147.16598747  .00019131  00000-0  55999-3 0  9997
2 57189  97.5104 216.2404 0008699 140.0194 220.1691 15.35250049161461
SITRO-AIS-6 (CHIRKIN)
1 57192U 23091AC  26147.19265411  .00013323  00000-0  52787-3 0  9992
2 57192  97.5083 210.1285 0012181 172.7853 187.3562 15.25468967161084
SITRO-AIS-8 (SHCHUKIN)
1 57193U 23091AD  26147.18368507  .00018704  00000-0  61591-3 0  9993
2 57193  97.5072 212.3953 0011301 165.2255 194.9318 15.31477075161232
SITRO-AIS-7 (SHEFFER)
1 57194U 23091AE  26147.19157635  .00013023  00000-0  52077-3 0  9991
2 57194  97.5081 209.9629 0012015 173.7213 186.4177 15.25167251161072
AVION KALUGA 650 (RS24S)
1 57195U 23091AF  26147.16514804  .00007306  00000-0  34095-3 0  9991
2 57195  97.5105 206.8291 0010643 175.1270 185.0070 15.20091492160833
SITRO-AIS-10 (KATYS)
1 57199U 23091AK  26147.17186372  .00023959  00000-0  64770-3 0  9996
2 57199  97.5094 217.2249 0007989 141.5651 218.6164 15.37694160161536
SITRO-AIS-9 (BURDAEV)
1 57201U 23091AM  26147.19177947  .00024752  00000-0  67894-3 0  9992
2 57201  97.5094 216.9914 0008195 141.8894 218.2931 15.37234230161522
UTMN-2 (RS27S)
1 57203U 23091AP  26147.15653876  .00014536  00000-0  48018-3 0  9996
2 57203  97.5101 214.0941 0009260 146.4330 213.7499 15.31451892161328
SITRO-AIS-12 (FARTUSHNY)
1 57204U 23091AQ  26147.18633787  .00025152  00000-0  68357-3 0  9993
2 57204  97.5104 217.4399 0007925 136.5176 223.6695 15.37520195161541
AHMAT-1 (RS41S)
1 57206U 23091AS  26147.16695391  .00078743  00000-0  97151-3 0  9990
2 57206  97.5056 225.7476 0004673 128.9967 231.1706 15.59906346162118
SITRO-AIS-11 (SMIRENNY)
1 57208U 23091AU  26147.20542370  .00026551  00000-0  71201-3 0  9993
2 57208  97.5103 217.6929 0007842 136.3508 223.8358 15.37923491161566
KUZGTU-1 (RS47S)
1 57217U 23091AV  26147.16556826  .00013141  00000-0  46388-3 0  9998
2 57217  97.5080 211.4388 0011765 163.5305 196.6319 15.29296489161168
STRATOSAT-TK1-D (RS52SD)
1 57326U 23091BA  26146.83088458  .00615821  15928-3  16149-2 0  9995
2 57326  97.4921 228.9790 0006243 237.1698 122.8976 15.94834847160011
METEOR M2-4
1 59051U 24039A   26147.22148959  .00000026  00000-0  31151-4 0  9991
2 59051  98.7000 106.7846 0006156 224.5159 135.5525 14.22427180116289
PARS-1
1 59065U 24039Q   26147.20721311  .00012131  00000-0  25671-3 0  9992
2 59065  97.4809 127.4752 0009457 177.7016 182.4277 15.45236665125402
SITRO-AIS-25
1 59066U 24039R   26147.20369672  .00005244  00000-0  40748-3 0  9990
2 59066  95.3919 220.6744 0146340  42.1656 319.0716 14.93359932121594
SITRO-AIS-26
1 59067U 24039S   26147.20222477  .00004535  00000-0  35435-3 0  9991
2 59067  95.3920 220.5754 0146684  42.7198 318.5320 14.93158389121582
SITRO-AIS-27
1 59068U 24039T   26147.17832513  .00004271  00000-0  33095-3 0  9993
2 59068  95.3922 220.8207 0145802  41.4680 319.7500 14.93573643121604
SITRO-AIS-28
1 59071U 24039U   26147.15625002  .00005109  00000-0  39504-3 0  9990
2 59071  95.3925 220.8516 0145716  41.4448 319.7721 14.93609197121609
SONATE-2
1 59112U 24043Q   26146.94189100  .00037060  00000-0  51346-3 0  9990
2 59112  97.5508 296.0656 0005936 272.5792  87.4783 15.56981061124584
HORS-1
1 57188U 23091Y   26147.19988970  .00012076  00000-0  46741-3 0  9996
2 57188  97.5082 210.6710 0009756 157.6961 202.4704 15.26296768161112
HORS-2
1 57196U 23091AG  26147.19228968  .00017141  00000-0  56876-3 0  9997
2 57196  97.5103 213.9441 0009251 150.3300 209.8467 15.31271647161313
ZORKIY-2M 6
1 59774U 24092B   26147.15527374  .00011127  00000-0  40642-3 0  9994
2 59774  97.6459 275.7008 0007700 251.5049 108.5353 15.28263554112328
ZORKIY-2M 4
1 59775U 24092C   26147.21071951  .00012041  00000-0  43037-3 0  9994
2 59775  97.6603 277.5433 0007761 254.0535 105.9849 15.28955423112376
SITRO-AIS-53
1 59776U 24092D   26146.86333079  .00020431  00000-0  58268-3 0  9991
2 59776  97.6543 279.0756 0006889 217.3496 142.7269 15.36071225112477
SITRO-AIS-54
1 59777U 24092E   26147.13738380  .00021404  00000-0  61167-3 0  9990
2 59777  97.6545 279.3202 0006985 215.9890 144.0883 15.35996997112511
SITRO-AIS-56
1 59778U 24092F   26146.86282876  .00021083  00000-0  58918-3 0  9997
2 59778  97.6541 279.3357 0007205 217.0233 143.0514 15.36697265112493
RASSVET 1-4
1 59779U 24092G   26147.19102810  .00000192  00000-0  88633-4 0  9990
2 59779  98.6674 266.2566 0010718 269.6367  90.3588 14.31837138105893
RASSVET 1-5
1 59780U 24092H   26147.19094361  .00000194  00000-0  89376-4 0  9990
2 59780  98.6674 266.2493 0011082 271.2115  88.7798 14.31837153105890
RASSVET 1-6
1 59781U 24092J   26147.18950816  .00000185  00000-0  85785-4 0  9996
2 59781  98.6674 266.2532 0010975 271.5082  88.4843 14.31838182105892
SITRO-AIS-55
1 59809U 24092K   26146.86378434  .00020190  00000-0  58143-3 0  9996
2 59809  97.6538 278.8538 0007037 217.0835 142.9923 15.35769070111966
MESAT-1
1 60209U 24125G   26147.15799560  .00065544  00000-0  78373-3 0  9998
2 60209  97.2328   4.1951 0008141 293.9501  66.0903 15.60753225106280
ISTSAT-1
1 60238U 24128D   26147.14806259  .00008795  00000-0  52154-3 0  9990
2 60238  61.9879 280.5081 0041131 127.0937 233.3929 15.11311742103285
IONOSFERA-M 01
1 61735U 24199A   26147.16630863  .00000063  00000-0  47788-4 0  9997
2 61735  98.7202  20.5577 0001155 137.3175 222.8093 14.22749957124718
IONOSFERA-M 02
1 61736U 24199B   26147.20065522  .00000062  00000-0  47196-4 0  9999
2 61736  98.7200  20.5026 0001753  59.4986 300.6365 14.22753063127841
SITRO-AIS-16
1 61737U 24199C   26147.17612990  .00004017  00000-0  34921-3 0  9998
2 61737  97.3254 347.8159 0008294 126.7619 233.4366 14.97475029128677
SITRO-AIS-15
1 61738U 24199D   26147.16059403  .00003476  00000-0  30273-3 0  9996
2 61738  97.3243 347.8391 0007784 129.6800 230.5110 14.97485944128673
SITRO-AIS-21
1 61739U 24199E   26147.19236214  .00002440  00000-0  22741-3 0  9998
2 61739  97.3269 346.3629 0013766 129.2049 231.0397 14.95025912128618
SITRO-AIS-22
1 61740U 24199F   26147.16567690  .00003656  00000-0  33178-3 0  9998
2 61740  97.3262 346.5470 0014037 128.8146 231.4332 14.95789006128775
SITRO-AIS-24
1 61741U 24199G   26147.15431145  .00003222  00000-0  29118-3 0  9991
2 61741  97.3260 346.5712 0013699 130.4819 229.7600 14.96035646128742
SITRO-AIS-23
1 61742U 24199H   26147.15343231  .00003132  00000-0  28483-3 0  9994
2 61742  97.3258 346.5643 0013676 130.3553 229.8865 14.95813278128627
